[{"OBJECT_NAME":"STARLINK-2569","OBJECT_ID":"2021-036B","EPOCH":"2026-03-10T00:00:02.999808","MEAN_MOTION":15.23820477,"ECCENTRICITY":0.00017097,"INCLINATION":53.129,"RA_OF_ASC_NODE":9.5309,"ARG_OF_PERICENTER":96.8785,"MEAN_ANOMALY":250.7742,"EPHEMERIS_TYPE":0,"CLASSIFICATION_TYPE":"U","NORAD_CAT_ID":48277,"ELEMENT_SET_NO":999,"REV_AT_EPOCH":574,"BSTAR":-0.0006504466,"MEAN_MOTION_DOT":-0.00016175,"MEAN_MOTION_DDOT":0},{"OBJECT_NAME":"TRANSPORTER-14 OBJECT AE","OBJECT_ID":"2025-135AE","EPOCH":"2026-03-09T20:11:29.488128","MEAN_MOTION":15.24010322,"ECCENTRICITY":0.00026151,"INCLINATION":97.4617,"RA_OF_ASC_NODE":185.7106,"ARG_OF_PERICENTER":72.7943,"MEAN_ANOMALY":287.358,"EPHEMERIS_TYPE":0,"CLASSIFICATION_TYPE":"U","NORAD_CAT_ID":64556,"ELEMENT_SET_NO":999,"REV_AT_EPOCH":3980,"BSTAR":0.00048718914,"MEAN_MOTION_DOT":0.00011742,"MEAN_MOTION_DDOT":0}]
